#cP2023  9 21  0  0  0.00000000      96 ORBIT IGS20 HLM  IGS
## 2280 345600.00000000   900.00000000 60208 0.0000000000000
+   32   G01G02G03G04G05G06G07G08G09G10G11G12G13G14G15G16G17
+        G18G19G20G21G22G23G24G25G26G27G28G29G30G31G32  0  0
+          0  0  0  0  0  0  0  0  0  0  0  0  0  0  0  0  0
+          0  0  0  0  0  0  0  0  0  0  0  0  0  0  0  0  0
+          0  0  0  0  0  0  0  0  0  0  0  0  0  0  0  0  0
++         2  2  2  2  2  2  2  2  2  2  2  2  2  2  2  2  2
++         3  2  2  2  2  2  2  2  2  2  3  2  2  2  2  0  0
++         0  0  0  0  0  0  0  0  0  0  0  0  0  0  0  0  0
++         0  0  0  0  0  0  0  0  0  0  0  0  0  0  0  0  0
++         0  0  0  0  0  0  0  0  0  0  0  0  0  0  0  0  0
%c G  cc GPS ccc cccc cccc cccc cccc ccccc ccccc ccccc ccccc
%c cc cc ccc ccc cccc cccc cccc cccc ccccc ccccc ccccc ccccc
%f  1.2500000  1.025000000  0.00000000000  0.000000000000000
%f  0.0000000  0.000000000  0.00000000000  0.000000000000000
%i    0    0    0    0      0      0      0      0         0
%i    0    0    0    0      0      0      0      0         0
/* RAPID ORBIT COMBINATION FROM WEIGHTED AVERAGE OF:        
/* cod emr esa gfz grg jgx jpl ngs sio usn whu              
/* REFERENCED TO IGS TIME (IGST) AND TO WEIGHTED MEAN POLE: 
/* PCV:IGS20      OL/AL:FES2014b NONE     Y  ORB:CMB CLK:CMB
*  2023  9 21  8 15  0.00000000
PG01  16382.241832   5061.828674  20040.106892    165.011679  7  7  3  77       
PG02  18596.593931  10520.079010  16392.055864   -551.420889  7  5  5  87       
PG03  19026.617396  -6608.829005  17108.327889   -123.465042  5     4  81       
PG04  26145.269414    180.129674  -5026.366312    162.242066  7  4  1  87       
PG05 -12620.685787  -8391.814281 -21995.058626   -143.542658  6  6  3  90       
PG06  -4494.813613 -24699.021363   8594.161152    546.287785  6  7  7  92       
PG07  10092.372477 -12992.172761 -20280.401976     61.382633  3  6  4  88       
PG08  25474.431638   6012.972698  -5715.863690   -143.342399  3  5  5  90       
PG09  21969.321731  -7422.971634 -13085.871392    -53.905267  5  3  3  90       
PG10  -9264.982508  23071.516551   9047.545800    -54.246185  5  6  3  92       
PG11 -12343.450595 -23083.286752  -4644.920971   -379.046391  9 10  7  90       
PG12 -18589.255331   2101.624345  18554.096335   -427.192351  4  5  2  76       
PG13 -19697.297695 -13465.935049 -12086.885526    575.067111  7  9  4  87       
PG14  12395.313233 -22693.569654   5686.636273    191.287258  4  3  3  92       
PG15 -26064.157102  -2992.522876  -5377.282187     79.590138  4  7  4  92       
PG16   8086.323641  13557.826636 -21608.303423   -451.010094  5  6  4 109       
PG17   7193.704512 -13916.871542  21897.334647    723.819563  5  4  4  60       
PG18  -8444.942373  15088.678678 -20103.147799   -424.294088  5  5  7 102       
PG19  -2634.702358 -15444.349381  21294.975988    374.420675  5  4  5  58       
PG20  -5280.811601 -18672.747338 -18177.164674    410.782586  7  7  4  49       
PG21  18823.801573  13615.292544  14179.907896    148.467786  9  8  6 110       
PG22   7633.979386 -22322.136041  12930.954531    117.676947  2  5  3  99       
PG23 -16739.658200  20187.875347  -3544.889475     71.389716  5  6  4  99       
PG24 -18791.320338  -8696.041550  16481.217389   -325.398599  3  7  8 103       
PG25 -19160.045642  15280.131797   9579.809045    468.864475  4  5  5  84       
PG26    843.804374  21097.406346 -16022.887860    227.425700  5  6  4  81       
PG27  17331.333621  12880.577922 -15988.678692    -42.969198  3  6  4 100       
PG28   3825.402779  24206.497555  10219.908359    -12.867417  8 11  8  94       
PG29 -22291.140911   5255.854654 -13586.518235   -609.488397  4  6  7  89       
PG30   2888.674911 -21378.415521 -15200.468975   -485.847623  5  6  5 100       
PG31   9894.239788  24392.009928    372.364923   -223.663721  6  7  4  95       
PG32  -1718.800828  15213.339169  21880.382425   -561.265068  2  5  7 105       
*  2023  9 21  8 30  0.00000000
PG01  17262.966125   7150.151877  18669.746996    165.010954  7  6  4  77       
PG02  19318.899077  12033.200474  14337.282800   -551.416630  7  6  5  63       
PG03  17957.991182  -4820.813207  18775.222704   -123.445977  5     4  76       
PG04  26530.948037    458.824463  -2212.247182    162.252034  7  4     73       
PG05 -11316.029541 -10482.783909 -21796.805685   -143.543690  7  6  4  81       
PG06  -3872.888049 -23749.667367  11204.635408    546.281362  6  7  7  87       
PG07  11247.873333 -10806.940537 -20971.040151     61.373328  3  6  5  85       
PG08  24675.745742   6199.254015  -8387.757710   -143.343560  3  5  5  85       
PG09  23304.842989  -7137.422644 -10706.698824    -53.895914  5  3  3  89       
PG10  -9921.052744  23669.337529   6317.666081    -54.248118  5  6  3  81       
PG11 -12272.382341 -23515.656907  -1813.205224   -379.062752  9 10  7  99       
PG12 -17292.869906    255.920083  19866.119875   -427.196240  4  5  1  59       
PG13 -18219.879271 -13314.609135 -14372.574631    575.071050  7  9  4  82       
PG14  12926.944562 -22916.789165   2904.955257    191.297401  4  3  3  86       
PG15 -25377.511675  -3334.035422  -8023.874846     79.593390  5  7  4 102       
PG16   6525.861388  15348.424448 -20876.430278   -451.004951  6  6  4 104       
PG17   9536.401584 -13554.758622  21214.897284    723.819747  5  4  4  49       
PG18  -9506.395119  12980.854420 -21092.323780   -424.305192  5  4  6  90       
PG19   -173.071607 -15019.841074  21722.336903    374.425518  4  3  5  60       
PG20  -4313.528748 -20416.474409 -16499.898282    410.780840  7  7  4  71       
PG21  19421.270925  14874.218298  11915.849935    148.467495  9  8  6 111       
PG22   8580.202336 -23187.788194  10525.863415    117.670378  2  4  3  93       
PG23 -16620.358012  19588.306665  -6364.825001     71.394570  5  6  4  96       
PG24 -19554.956157 -10374.964020  14593.426363   -325.407999  3  8  8 102       
PG25 -18674.110347  14055.621256  12043.976251    468.866216  4  6  5  80       
PG26   -238.552326  22458.083193 -14024.440992    227.423942  5  6  4  86       
PG27  15452.738688  12876.625956 -17805.541382    -42.974734  3  5  4 103       
PG28   3023.971862  23146.299135  12650.180030    -12.872516  7 10  8 102       
PG29 -23656.691776   4878.221829 -11211.147798   -609.488775  4  6  7 100       
PG30   3905.110298 -19779.097146 -17037.969940   -485.844566  4  6  5 105       
PG31   9521.040536  24310.230150   3230.994731   -223.664218  6  7  4 106       
PG32  -4166.124827  15029.326981  21657.587479   -561.270355  2  5  7 104       
*  2023  9 21  8 45  0.00000000
PG01  18176.129780   9026.132327  16972.746117    165.010223  7  7  4  72       
PG02  19987.017321  13307.066317  12044.983912   -551.412541  8  6  4  65       
PG03  16900.828248  -2829.482521  20114.037117   -123.426915  5     4  77       
PG04  26611.220496    701.022533    639.666133    162.261984  8  5     67       
PG05 -10145.043292 -12603.829328 -21229.467465   -143.545457  7  6  4  50       
PG06  -3061.928153 -22586.675989  13621.931970    546.274961  5  6  7  85       
PG07  12534.915830  -8633.336364 -21283.035804     61.363858  3  7  5  77       
PG08  23596.314676   6431.526847 -10918.951380   -143.345986  3  6  5  81       
PG09  24374.944841  -6918.542559  -8144.523710    -53.886550  5  4  3  64       
PG10 -10383.399281  24028.598469   3477.469445    -54.250012  5  6  3  78       
PG11 -12081.328005 -23662.416994   1049.626585   -379.079085  8  9  7  96       
PG12 -16019.358520  -1762.100015  20827.659831   -427.200377  3  5     67       
PG13 -16496.630238 -13206.463290 -16416.263160    575.075167  7  8  4  89       
PG14  13275.761667 -22897.559504     72.775515    191.307561  4  3  3  92       
PG15 -24424.709983  -3741.887860 -10536.421636     79.596590  6  7  3  96       
PG16   5118.542304  17140.375767 -19791.757514   -450.999701  6  6  4 106       
PG17  11800.937252 -13329.493670  20181.865439    723.819848  4  4  4  65       
PG18 -10722.702145  10854.135412 -21717.272098   -424.316306  5  3  6 105       
PG19   2338.187776 -14723.605140  21769.534803    374.429910  3  3  5  53       
PG20  -3510.441935 -22014.292553 -14540.024032    410.778776  7  6  4  86       
PG21  19940.217669  15885.355343   9461.044454    148.466520  9  8  6 105       
PG22   9318.274645 -23878.036506   7945.853613    117.663805  2  2  3  98       
PG23 -16380.338166  18708.229061  -9074.046954     71.399340  5  5  3  76       
PG24 -20269.456006 -11821.724784  12453.152140   -325.417429  3  8  9 104       
PG25 -18114.761355  12573.267198  14294.491921    468.867974  4  6  4  80       
PG26  -1149.617873  23655.827597 -11782.422298    227.422209  5  5  4  93       
PG27  13389.330994  12972.702198 -19326.219796    -42.980275  4  5  3 103       
PG28   2032.077374  21904.266506  14862.498567    -12.877576  6  9  8 108       
PG29 -24762.604243   4600.604890  -8644.326084   -609.488932  4  6  8  95       
PG30   5087.759582 -18062.232562 -18576.790239   -485.841508  4  5  5  84       
PG31   8991.661354  23961.253653   6032.383362   -223.664859  6  6  5  88       
PG32  -6576.338612  14974.023135  21067.483711   -561.275686  3  5  7 108       
EOF
